GOES 1 (SMS-C)          
1 08366U 75100A   26065.20110177  .00000008  00000+0  00000+0 0  9990
2 08366   4.8700 278.7290 0005400   0.1071 196.6133  1.00237790184031
GOES 2                  
1 10061U 77048A   26065.03296771 -.00000224  00000+0  00000+0 0  9995
2 10061   6.6653 294.2072 0013899  47.8076 304.1132  0.99396446 45243
GOES 3                  
1 10953U 78062A   26064.89892277 -.00000297  00000+0  00000+0 0  9998
2 10953   7.1355 300.0385 0002748 356.3127 344.4642  0.99365972127500
GOES 4                  
1 11964U 80074A   26065.07084120 -.00000212  00000+0  00000+0 0  9995
2 11964   8.2086 303.7198 0032122 103.0741  83.8729  0.99230444126410
GOES 5                  
1 12472U 81049A   26065.20734179 -.00000195  00000+0  00000+0 0  9994
2 12472   9.5428 316.3313 0004652 337.3827 215.8254  1.00211123121817
GOES 6                  
1 14050U 83041A   26064.27621734 -.00000075  00000+0  00000+0 0  9997
2 14050  10.3561 321.8949 0002343 307.0066 243.8951  1.00217783214972
GOES 7                  
1 17561U 87022A   26064.34269096  .00000080  00000+0  00000+0 0  9992
2 17561  13.0200 338.3678 0003961  14.8217 158.7836  0.99895004125929
GOES 8                  
1 23051U 94022A   26065.12128037 -.00000275  00000+0  00000+0 0  9994
2 23051  14.3420  14.4574 0005047  14.7005 337.9046  0.98908233123106
GOES 9                  
1 23581U 95025A   26064.85103998 -.00000048  00000+0  00000+0 0  9992
2 23581  13.8712  15.3028 0003594 210.7063 156.1277  0.98798323111744
GOES 10                 
1 24786U 97019A   26064.88618271 -.00000044  00000+0  00000+0 0  9999
2 24786  13.0057  21.8365 0030955 239.2690 311.4608  0.99121951105043
GOES 11                 
1 26352U 00022A   26064.92336287 -.00000075  00000+0  00000+0 0  9991
2 26352  11.5836  47.4289 0005918 254.9141 111.0340  0.99040481 51457
GOES 12                 
1 26871U 01031A   26064.35664437 -.00000182  00000+0  00000+0 0  9995
2 26871  11.9966  38.1347 0008752 296.0625 253.6596  0.99136879 89731
EWS-G1 (GOES 13)        
1 29155U 06018A   26065.20118844  .00000048  00000+0  00000+0 0  9994
2 29155   4.2655  77.6801 0062007 273.2759 124.6316  0.98785404 42234
GOES 14                 
1 35491U 09033A   26065.16572465  .00000120  00000+0  00000+0 0  9993
2 35491   1.4238  84.3957 0001780 255.5978  84.3240  1.00100143  5551
EWS-G2 (GOES 15)        
1 36411U 10008A   26065.16626162  .00000016  00000+0  00000+0 0  9998
2 36411   1.0131  85.1126 0002005  18.4418 183.6554  1.00269713 58609
GOES 16                 
1 41866U 16071A   26065.20430845 -.00000096  00000+0  00000+0 0  9999
2 41866   0.1424  89.5183 0002414 221.6288 181.6256  1.00271914 34070
GOES 17                 
1 43226U 18022A   26065.17822755 -.00000187  00000+0  00000+0 0  9991
2 43226   0.6726  87.5170 0002145 224.8372 186.1889  1.00270210 29395
