[{"OBJECT_NAME":"GOES 1 (SMS-C)","OBJECT_ID":"1975-100A","EPOCH":"2026-03-06T04:49:35.192928","MEAN_MOTION":1.0023779,"ECCENTRICITY":0.00054001,"INCLINATION":4.87,"RA_OF_ASC_NODE":278.729,"ARG_OF_PERICENTER":0.1071,"MEAN_ANOMALY":196.6133,"EPHEMERIS_TYPE":0,"CLASSIFICATION_TYPE":"U","NORAD_CAT_ID":8366,"ELEMENT_SET_NO":999,"REV_AT_EPOCH":18403,"BSTAR":0,"MEAN_MOTION_DOT":8.0e-8,"MEAN_MOTION_DDOT":0},{"OBJECT_NAME":"GOES 2","OBJECT_ID":"1977-048A","EPOCH":"2026-03-06T00:47:28.410144","MEAN_MOTION":0.99396446,"ECCENTRICITY":0.00138999,"INCLINATION":6.6653,"RA_OF_ASC_NODE":294.2072,"ARG_OF_PERICENTER":47.8076,"MEAN_ANOMALY":304.1132,"EPHEMERIS_TYPE":0,"CLASSIFICATION_TYPE":"U","NORAD_CAT_ID":10061,"ELEMENT_SET_NO":999,"REV_AT_EPOCH":4524,"BSTAR":0,"MEAN_MOTION_DOT":-2.24e-6,"MEAN_MOTION_DDOT":0},{"OBJECT_NAME":"GOES 3","OBJECT_ID":"1978-062A","EPOCH":"2026-03-05T21:34:26.927328","MEAN_MOTION":0.99365972,"ECCENTRICITY":0.00027487,"INCLINATION":7.1355,"RA_OF_ASC_NODE":300.0385,"ARG_OF_PERICENTER":356.3127,"MEAN_ANOMALY":344.4642,"EPHEMERIS_TYPE":0,"CLASSIFICATION_TYPE":"U","NORAD_CAT_ID":10953,"ELEMENT_SET_NO":999,"REV_AT_EPOCH":12750,"BSTAR":0,"MEAN_MOTION_DOT":-2.97e-6,"MEAN_MOTION_DDOT":0},{"OBJECT_NAME":"GOES 4","OBJECT_ID":"1980-074A","EPOCH":"2026-03-06T01:42:00.679680","MEAN_MOTION":0.99230444,"ECCENTRICITY":0.0032122,"INCLINATION":8.2086,"RA_OF_ASC_NODE":303.7198,"ARG_OF_PERICENTER":103.0741,"MEAN_ANOMALY":83.8729,"EPHEMERIS_TYPE":0,"CLASSIFICATION_TYPE":"U","NORAD_CAT_ID":11964,"ELEMENT_SET_NO":999,"REV_AT_EPOCH":12641,"BSTAR":0,"MEAN_MOTION_DOT":-2.12e-6,"MEAN_MOTION_DDOT":0},{"OBJECT_NAME":"GOES 5","OBJECT_ID":"1981-049A","EPOCH":"2026-03-06T04:58:34.330656","MEAN_MOTION":1.00211123,"ECCENTRICITY":0.00046527,"INCLINATION":9.5428,"RA_OF_ASC_NODE":316.3313,"ARG_OF_PERICENTER":337.3827,"MEAN_ANOMALY":215.8254,"EPHEMERIS_TYPE":0,"CLASSIFICATION_TYPE":"U","NORAD_CAT_ID":12472,"ELEMENT_SET_NO":999,"REV_AT_EPOCH":12181,"BSTAR":0,"MEAN_MOTION_DOT":-1.95e-6,"MEAN_MOTION_DDOT":0},{"OBJECT_NAME":"GOES 6","OBJECT_ID":"1983-041A","EPOCH":"2026-03-05T06:37:45.178176","MEAN_MOTION":1.00217783,"ECCENTRICITY":0.0002343,"INCLINATION":10.3561,"RA_OF_ASC_NODE":321.8949,"ARG_OF_PERICENTER":307.0066,"MEAN_ANOMALY":243.8951,"EPHEMERIS_TYPE":0,"CLASSIFICATION_TYPE":"U","NORAD_CAT_ID":14050,"ELEMENT_SET_NO":999,"REV_AT_EPOCH":21497,"BSTAR":0,"MEAN_MOTION_DOT":-7.5e-7,"MEAN_MOTION_DDOT":0},{"OBJECT_NAME":"GOES 7","OBJECT_ID":"1987-022A","EPOCH":"2026-03-05T08:13:28.498944","MEAN_MOTION":0.99895004,"ECCENTRICITY":0.0003961,"INCLINATION":13.02,"RA_OF_ASC_NODE":338.3678,"ARG_OF_PERICENTER":14.8217,"MEAN_ANOMALY":158.7836,"EPHEMERIS_TYPE":0,"CLASSIFICATION_TYPE":"U","NORAD_CAT_ID":17561,"ELEMENT_SET_NO":999,"REV_AT_EPOCH":12592,"BSTAR":0,"MEAN_MOTION_DOT":8.0e-7,"MEAN_MOTION_DDOT":0},{"OBJECT_NAME":"GOES 8","OBJECT_ID":"1994-022A","EPOCH":"2026-03-06T02:54:38.623968","MEAN_MOTION":0.98908233,"ECCENTRICITY":0.00050476,"INCLINATION":14.342,"RA_OF_ASC_NODE":14.4574,"ARG_OF_PERICENTER":14.7005,"MEAN_ANOMALY":337.9046,"EPHEMERIS_TYPE":0,"CLASSIFICATION_TYPE":"U","NORAD_CAT_ID":23051,"ELEMENT_SET_NO":999,"REV_AT_EPOCH":12310,"BSTAR":0,"MEAN_MOTION_DOT":-2.75e-6,"MEAN_MOTION_DDOT":0},{"OBJECT_NAME":"GOES 9","OBJECT_ID":"1995-025A","EPOCH":"2026-03-05T20:25:29.854272","MEAN_MOTION":0.98798323,"ECCENTRICITY":0.00035947,"INCLINATION":13.8712,"RA_OF_ASC_NODE":15.3028,"ARG_OF_PERICENTER":210.7063,"MEAN_ANOMALY":156.1277,"EPHEMERIS_TYPE":0,"CLASSIFICATION_TYPE":"U","NORAD_CAT_ID":23581,"ELEMENT_SET_NO":999,"REV_AT_EPOCH":11174,"BSTAR":0,"MEAN_MOTION_DOT":-4.8e-7,"MEAN_MOTION_DDOT":0},{"OBJECT_NAME":"GOES 10","OBJECT_ID":"1997-019A","EPOCH":"2026-03-05T21:16:06.186144","MEAN_MOTION":0.99121951,"ECCENTRICITY":0.00309557,"INCLINATION":13.0057,"RA_OF_ASC_NODE":21.8365,"ARG_OF_PERICENTER":239.269,"MEAN_ANOMALY":311.4608,"EPHEMERIS_TYPE":0,"CLASSIFICATION_TYPE":"U","NORAD_CAT_ID":24786,"ELEMENT_SET_NO":999,"REV_AT_EPOCH":10504,"BSTAR":0,"MEAN_MOTION_DOT":-4.4e-7,"MEAN_MOTION_DDOT":0},{"OBJECT_NAME":"GOES 11","OBJECT_ID":"2000-022A","EPOCH":"2026-03-05T22:09:38.551968","MEAN_MOTION":0.99040481,"ECCENTRICITY":0.00059182,"INCLINATION":11.5836,"RA_OF_ASC_NODE":47.4289,"ARG_OF_PERICENTER":254.9141,"MEAN_ANOMALY":111.034,"EPHEMERIS_TYPE":0,"CLASSIFICATION_TYPE":"U","NORAD_CAT_ID":26352,"ELEMENT_SET_NO":999,"REV_AT_EPOCH":5145,"BSTAR":0,"MEAN_MOTION_DOT":-7.5e-7,"MEAN_MOTION_DDOT":0},{"OBJECT_NAME":"GOES 12","OBJECT_ID":"2001-031A","EPOCH":"2026-03-05T08:33:34.073568","MEAN_MOTION":0.99136879,"ECCENTRICITY":0.0008752,"INCLINATION":11.9966,"RA_OF_ASC_NODE":38.1347,"ARG_OF_PERICENTER":296.0625,"MEAN_ANOMALY":253.6596,"EPHEMERIS_TYPE":0,"CLASSIFICATION_TYPE":"U","NORAD_CAT_ID":26871,"ELEMENT_SET_NO":999,"REV_AT_EPOCH":8973,"BSTAR":0,"MEAN_MOTION_DOT":-1.82e-6,"MEAN_MOTION_DDOT":0},{"OBJECT_NAME":"EWS-G1 (GOES 13)","OBJECT_ID":"2006-018A","EPOCH":"2026-03-06T04:49:42.681216","MEAN_MOTION":0.98785404,"ECCENTRICITY":0.00620074,"INCLINATION":4.2655,"RA_OF_ASC_NODE":77.6801,"ARG_OF_PERICENTER":273.2759,"MEAN_ANOMALY":124.6316,"EPHEMERIS_TYPE":0,"CLASSIFICATION_TYPE":"U","NORAD_CAT_ID":29155,"ELEMENT_SET_NO":999,"REV_AT_EPOCH":4223,"BSTAR":0,"MEAN_MOTION_DOT":4.8e-7,"MEAN_MOTION_DDOT":0},{"OBJECT_NAME":"GOES 14","OBJECT_ID":"2009-033A","EPOCH":"2026-03-06T03:58:38.609760","MEAN_MOTION":1.00100143,"ECCENTRICITY":0.00017804,"INCLINATION":1.4238,"RA_OF_ASC_NODE":84.3957,"ARG_OF_PERICENTER":255.5978,"MEAN_ANOMALY":84.324,"EPHEMERIS_TYPE":0,"CLASSIFICATION_TYPE":"U","NORAD_CAT_ID":35491,"ELEMENT_SET_NO":999,"REV_AT_EPOCH":555,"BSTAR":0,"MEAN_MOTION_DOT":1.2e-6,"MEAN_MOTION_DDOT":0},{"OBJECT_NAME":"EWS-G2 (GOES 15)","OBJECT_ID":"2010-008A","EPOCH":"2026-03-06T03:59:25.003968","MEAN_MOTION":1.00269713,"ECCENTRICITY":0.00020058,"INCLINATION":1.0131,"RA_OF_ASC_NODE":85.1126,"ARG_OF_PERICENTER":18.4418,"MEAN_ANOMALY":183.6554,"EPHEMERIS_TYPE":0,"CLASSIFICATION_TYPE":"U","NORAD_CAT_ID":36411,"ELEMENT_SET_NO":999,"REV_AT_EPOCH":5860,"BSTAR":0,"MEAN_MOTION_DOT":1.6e-7,"MEAN_MOTION_DDOT":0},{"OBJECT_NAME":"GOES 16","OBJECT_ID":"2016-071A","EPOCH":"2026-03-06T04:54:12.250080","MEAN_MOTION":1.00271914,"ECCENTRICITY":0.0002414,"INCLINATION":0.1424,"RA_OF_ASC_NODE":89.5183,"ARG_OF_PERICENTER":221.6288,"MEAN_ANOMALY":181.6256,"EPHEMERIS_TYPE":0,"CLASSIFICATION_TYPE":"U","NORAD_CAT_ID":41866,"ELEMENT_SET_NO":999,"REV_AT_EPOCH":3407,"BSTAR":0,"MEAN_MOTION_DOT":-9.6e-7,"MEAN_MOTION_DDOT":0},{"OBJECT_NAME":"GOES 17","OBJECT_ID":"2018-022A","EPOCH":"2026-03-06T04:16:38.860320","MEAN_MOTION":1.0027021,"ECCENTRICITY":0.00021454,"INCLINATION":0.6726,"RA_OF_ASC_NODE":87.517,"ARG_OF_PERICENTER":224.8372,"MEAN_ANOMALY":186.1889,"EPHEMERIS_TYPE":0,"CLASSIFICATION_TYPE":"U","NORAD_CAT_ID":43226,"ELEMENT_SET_NO":999,"REV_AT_EPOCH":2939,"BSTAR":0,"MEAN_MOTION_DOT":-1.87e-6,"MEAN_MOTION_DDOT":0}]
